[
    {
        "Altitude(m)": 558927.9609978496,
        "Argument of Periapsis(deg)": 0.013245982221427002,
        "Eccentricity": 0.0,
        "Inclination(deg)": 53.0,
        "Latitude(deg)": -20.10391810775675,
        "Longitude(deg)": -157.49762029259762,
        "Mean Anomaly(deg)": -25.27131426484475,
        "RAAN(deg)": 319.980286737056,
        "Satellite Name": "Starlink Shell 1 1427",
        "Satellite Number": 1427,
        "Semi-Major Axis(m)": 6931778.249405717,
        "Time(s)": 380
    },
    {
        "Altitude(m)": 558770.9288075255,
        "Argument of Periapsis(deg)": 0.013594560700938237,
        "Eccentricity": 0.0,
        "Inclination(deg)": 53.0,
        "Latitude(deg)": -19.619867679143688,
        "Longitude(deg)": -157.11390057285791,
        "Mean Anomaly(deg)": -24.644483061288053,
        "RAAN(deg)": 319.97976796697856,
        "Satellite Name": "Starlink Shell 1 1427",
        "Satellite Number": 1427,
        "Semi-Major Axis(m)": 6931778.249405717,
        "Time(s)": 390
    },
    {
        "Altitude(m)": 558615.4043550855,
        "Argument of Periapsis(deg)": 0.013943139180449475,
        "Eccentricity": 0.0,
        "Inclination(deg)": 53.0,
        "Latitude(deg)": -19.134779862999928,
        "Longitude(deg)": -156.7327059648179,
        "Mean Anomaly(deg)": -24.01765185773141,
        "RAAN(deg)": 319.9792491969011,
        "Satellite Name": "Starlink Shell 1 1427",
        "Satellite Number": 1427,
        "Semi-Major Axis(m)": 6931778.249405717,
        "Time(s)": 400
    },
    {
        "Altitude(m)": 558461.4411116838,
        "Argument of Periapsis(deg)": 0.014291717659960712,
        "Eccentricity": 0.0,
        "Inclination(deg)": 53.0,
        "Latitude(deg)": -18.648687326809476,
        "Longitude(deg)": -156.35395912698274,
        "Mean Anomaly(deg)": -23.39082065417456,
        "RAAN(deg)": 319.97873042682363,
        "Satellite Name": "Starlink Shell 1 1427",
        "Satellite Number": 1427,
        "Semi-Major Axis(m)": 6931778.249405717,
        "Time(s)": 410
    },
    {
        "Altitude(m)": 558309.0917036504,
        "Argument of Periapsis(deg)": 0.014640296139471948,
        "Eccentricity": 0.0,
        "Inclination(deg)": 53.0,
        "Latitude(deg)": -18.16162218562504,
        "Longitude(deg)": -155.9775842148449,
        "Mean Anomaly(deg)": -22.763989450617913,
        "RAAN(deg)": 319.9782116567461,
        "Satellite Name": "Starlink Shell 1 1427",
        "Satellite Number": 1427,
        "Semi-Major Axis(m)": 6931778.249405717,
        "Time(s)": 420
    },
    {
        "Altitude(m)": 558158.4078891325,
        "Argument of Periapsis(deg)": 0.014988874618983185,
        "Eccentricity": 0.0,
        "Inclination(deg)": 53.0,
        "Latitude(deg)": -17.673616022048627,
        "Longitude(deg)": -155.60350635131277,
        "Mean Anomaly(deg)": -22.13715824706122,
        "RAAN(deg)": 319.97769288666865,
        "Satellite Name": "Starlink Shell 1 1427",
        "Satellite Number": 1427,
        "Semi-Major Axis(m)": 6931778.249405717,
        "Time(s)": 430
    },
    {
        "Altitude(m)": 558009.4405351623,
        "Argument of Periapsis(deg)": 0.015337453098494424,
        "Eccentricity": 0.0,
        "Inclination(deg)": 53.0,
        "Latitude(deg)": -17.184699905774238,
        "Longitude(deg)": -155.23165109682336,
        "Mean Anomaly(deg)": -21.51032704350447,
        "RAAN(deg)": 319.97717411659124,
        "Satellite Name": "Starlink Shell 1 1427",
        "Satellite Number": 1427,
        "Semi-Major Axis(m)": 6931778.249405717,
        "Time(s)": 440
    },
    {
        "Altitude(m)": 557862.2395951299,
        "Argument of Periapsis(deg)": 0.01568603157800566,
        "Eccentricity": 0.0,
        "Inclination(deg)": 53.0,
        "Latitude(deg)": -16.69490441269946,
        "Longitude(deg)": -154.86194543206,
        "Mean Anomaly(deg)": -20.883495839947727,
        "RAAN(deg)": 319.9766553465137,
        "Satellite Name": "Starlink Shell 1 1427",
        "Satellite Number": 1427,
        "Semi-Major Axis(m)": 6931778.249405717,
        "Time(s)": 450
    },
    {
        "Altitude(m)": 557716.8540867548,
        "Argument of Periapsis(deg)": 0.0160346100575169,
        "Eccentricity": 0.0,
        "Inclination(deg)": 53.0,
        "Latitude(deg)": -16.20425964362306,
        "Longitude(deg)": -154.49431722757325,
        "Mean Anomaly(deg)": -20.25666463639103,
        "RAAN(deg)": 319.9761365764362,
        "Satellite Name": "Starlink Shell 1 1427",
        "Satellite Number": 1427,
        "Semi-Major Axis(m)": 6931778.249405717,
        "Time(s)": 460
    },
    {
        "Altitude(m)": 557573.3320704489,
        "Argument of Periapsis(deg)": 0.016383188537028134,
        "Eccentricity": 0.0,
        "Inclination(deg)": 53.0,
        "Latitude(deg)": -15.712795242536885,
        "Longitude(deg)": -154.12869471322009,
        "Mean Anomaly(deg)": -19.629833432834335,
        "RAAN(deg)": 319.9756178063588,
        "Satellite Name": "Starlink Shell 1 1427",
        "Satellite Number": 1427,
        "Semi-Major Axis(m)": 6931778.249405717,
        "Time(s)": 470
    },
    {
        "Altitude(m)": 557431.7206281944,
        "Argument of Periapsis(deg)": 0.01673176701653937,
        "Eccentricity": 0.0,
        "Inclination(deg)": 53.0,
        "Latitude(deg)": -15.220540414522508,
        "Longitude(deg)": -153.7650074603324,
        "Mean Anomaly(deg)": -19.00300222927764,
        "RAAN(deg)": 319.97509903628134,
        "Satellite Name": "Starlink Shell 1 1427",
        "Satellite Number": 1427,
        "Semi-Major Axis(m)": 6931778.249405717,
        "Time(s)": 480
    },
    {
        "Altitude(m)": 557292.0658428655,
        "Argument of Periapsis(deg)": 0.017080345496050607,
        "Eccentricity": 0.0,
        "Inclination(deg)": 53.0,
        "Latitude(deg)": -14.727523943268157,
        "Longitude(deg)": -153.4031858508991,
        "Mean Anomaly(deg)": -18.37617102572084,
        "RAAN(deg)": 319.9745802662038,
        "Satellite Name": "Starlink Shell 1 1427",
        "Satellite Number": 1427,
        "Semi-Major Axis(m)": 6931778.249405717,
        "Time(s)": 490
    },
    {
        "Altitude(m)": 557154.4127780678,
        "Argument of Periapsis(deg)": 0.017428923975561842,
        "Eccentricity": 0.0,
        "Inclination(deg)": 53.0,
        "Latitude(deg)": -14.233774208217017,
        "Longitude(deg)": -153.0431605466678,
        "Mean Anomaly(deg)": -17.74933982216425,
        "RAAN(deg)": 319.97406149612635,
        "Satellite Name": "Starlink Shell 1 1427",
        "Satellite Number": 1427,
        "Semi-Major Axis(m)": 6931778.249405717,
        "Time(s)": 500
    },
    {
        "Altitude(m)": 557018.805458449,
        "Argument of Periapsis(deg)": 0.01777750245507308,
        "Eccentricity": 0.0,
        "Inclination(deg)": 53.0,
        "Latitude(deg)": -13.739319201354567,
        "Longitude(deg)": -152.68486347106358,
        "Mean Anomaly(deg)": -17.122508618607554,
        "RAAN(deg)": 319.9735427260489,
        "Satellite Name": "Starlink Shell 1 1427",
        "Satellite Number": 1427,
        "Semi-Major Axis(m)": 6931778.249405717,
        "Time(s)": 510
    },
    {
        "Altitude(m)": 556885.2868505237,
        "Argument of Periapsis(deg)": 0.018126080934584315,
        "Eccentricity": 0.0,
        "Inclination(deg)": 53.0,
        "Latitude(deg)": -13.244186543654571,
        "Longitude(deg)": -152.3282272782031,
        "Mean Anomaly(deg)": -16.495677415050704,
        "RAAN(deg)": 319.9730239559714,
        "Satellite Name": "Starlink Shell 1 1427",
        "Satellite Number": 1427,
        "Semi-Major Axis(m)": 6931778.249405717,
        "Time(s)": 520
    },
    {
        "Altitude(m)": 556753.8988440586,
        "Argument of Periapsis(deg)": 0.018474659414095554,
        "Eccentricity": 0.0,
        "Inclination(deg)": 53.0,
        "Latitude(deg)": -12.748403501192403,
        "Longitude(deg)": -151.97318482189837,
        "Mean Anomaly(deg)": -15.86884621149406,
        "RAAN(deg)": 319.97250518589397,
        "Satellite Name": "Starlink Shell 1 1427",
        "Satellite Number": 1427,
        "Semi-Major Axis(m)": 6931778.249405717,
        "Time(s)": 530
    },
    {
        "Altitude(m)": 556624.6822339018,
        "Argument of Periapsis(deg)": 0.018823237893606792,
        "Eccentricity": 0.0,
        "Inclination(deg)": 53.0,
        "Latitude(deg)": -12.251997000933995,
        "Longitude(deg)": -151.6196701375401,
        "Mean Anomaly(deg)": -15.242015007937363,
        "RAAN(deg)": 319.97198641581645,
        "Satellite Name": "Starlink Shell 1 1427",
        "Satellite Number": 1427,
        "Semi-Major Axis(m)": 6931778.249405717,
        "Time(s)": 540
    },
    {
        "Altitude(m)": 556497.6767024536,
        "Argument of Periapsis(deg)": 0.019171816373118027,
        "Eccentricity": 0.0,
        "Inclination(deg)": 53.0,
        "Latitude(deg)": -11.754993646221294,
        "Longitude(deg)": -151.2676179111325,
        "Mean Anomaly(deg)": -14.615183804380617,
        "RAAN(deg)": 319.971467645739,
        "Satellite Name": "Starlink Shell 1 1427",
        "Satellite Number": 1427,
        "Semi-Major Axis(m)": 6931778.249405717,
        "Time(s)": 550
    },
    {
        "Altitude(m)": 556372.9208026131,
        "Argument of Periapsis(deg)": 0.019520394852629266,
        "Eccentricity": 0.0,
        "Inclination(deg)": 53.0,
        "Latitude(deg)": -11.257419731961294,
        "Longitude(deg)": -150.91696294836396,
        "Mean Anomaly(deg)": -13.98835260082387,
        "RAAN(deg)": 319.9709488756616,
        "Satellite Name": "Starlink Shell 1 1427",
        "Satellite Number": 1427,
        "Semi-Major Axis(m)": 6931778.249405717,
        "Time(s)": 560
    }
]